[{"OBJECT_NAME":"STARLINK-4522","OBJECT_ID":"2022-097A","EPOCH":"2026-03-09T12:35:34.822176","MEAN_MOTION":15.08840427,"ECCENTRICITY":0.0001689,"INCLINATION":53.22,"RA_OF_ASC_NODE":124.8663,"ARG_OF_PERICENTER":108.971,"MEAN_ANOMALY":251.1465,"EPHEMERIS_TYPE":0,"CLASSIFICATION_TYPE":"U","NORAD_CAT_ID":53388,"ELEMENT_SET_NO":999,"REV_AT_EPOCH":19882,"BSTAR":4.6594e-5,"MEAN_MOTION_DOT":4.54e-6,"MEAN_MOTION_DDOT":0},{"OBJECT_NAME":"FENGYUN 1C DEB","OBJECT_ID":"1999-025DHR","EPOCH":"2026-03-09T03:17:03.366528","MEAN_MOTION":14.93788576,"ECCENTRICITY":0.01441183,"INCLINATION":98.9629,"RA_OF_ASC_NODE":141.136,"ARG_OF_PERICENTER":297.5682,"MEAN_ANOMALY":61.0956,"EPHEMERIS_TYPE":0,"CLASSIFICATION_TYPE":"U","NORAD_CAT_ID":33728,"ELEMENT_SET_NO":999,"REV_AT_EPOCH":99589,"BSTAR":0.0005846723,"MEAN_MOTION_DOT":7.528e-5,"MEAN_MOTION_DDOT":0}]
